{
  "type": "FeatureCollection",
  "features": [
    {
      "type": "Feature",
      "properties": {
        "norad_id": 64751,
        "name": "PROGRESS-MS 31",
        "group": "stations",
        "lat": 42.44295189727949,
        "lon": 126.6023801696755,
        "alt_km": 412.6353519563145,
        "timestamp": "2025-12-25T07:41:08.484275+00:00",
        "meta_object_name": "PROGRESS-MS 31",
        "meta_object_id": "2025-146A",
        "meta_epoch": "2025-12-24T17:30:08.449344",
        "meta_mean_motion": 15.49788781,
        "meta_eccentricity": 0.00031932,
        "meta_inclination": 51.6317,
        "meta_ra_of_asc_node": 83.1022,
        "meta_arg_of_pericenter": 296.2044,
        "meta_mean_anomaly": 63.8616,
        "meta_ephemeris_type": 0,
        "meta_classification_type": "U",
        "meta_norad_cat_id": 64751,
        "meta_element_set_no": 999,
        "meta_rev_at_epoch": 675,
        "meta_bstar": 0.00024880559,
        "meta_mean_motion_dot": 0.00013665,
        "meta_mean_motion_ddot": 0,
        "tle_line1": "1 64751U 25146A   25358.72926446  .00013665  00000+0  24881-3 0  9990",
        "tle_line2": "2 64751  51.6317  83.1022 0003193 296.2044  63.8616 15.49788781  6753"
      },
      "geometry": {
        "type": "Point",
        "coordinates": [
          126.6023801696755,
          42.44295189727949
        ]
      }
    },
    {
      "type": "Feature",
      "properties": {
        "norad_id": 64786,
        "name": "TIANZHOU-9",
        "group": "stations",
        "lat": -35.123174986901475,
        "lon": -112.498193895699,
        "alt_km": 396.62806952634946,
        "timestamp": "2025-12-25T07:41:08.484285+00:00",
        "meta_object_name": "TIANZHOU-9",
        "meta_object_id": "2025-149A",
        "meta_epoch": "2025-12-24T21:11:11.048064",
        "meta_mean_motion": 15.59651715,
        "meta_eccentricity": 0.00082343,
        "meta_inclination": 41.4683,
        "meta_ra_of_asc_node": 302.9604,
        "meta_arg_of_pericenter": 137.936,
        "meta_mean_anomaly": 222.2112,
        "meta_ephemeris_type": 0,
        "meta_classification_type": "U",
        "meta_norad_cat_id": 64786,
        "meta_element_set_no": 999,
        "meta_rev_at_epoch": 25530,
        "meta_bstar": 0.00020600017,
        "meta_mean_motion_dot": 0.00016629,
        "meta_mean_motion_ddot": 0,
        "tle_line1": "1 64786U 25149A   25358.88276676  .00016629  00000+0  20600-3 0  9999",
        "tle_line2": "2 64786  41.4683 302.9604 0008234 137.9360 222.2112 15.59651715255301"
      },
      "geometry": {
        "type": "Point",
        "coordinates": [
          -112.498193895699,
          -35.123174986901475
        ]
      }
    },
    {
      "type": "Feature",
      "properties": {
        "norad_id": 65077,
        "name": "CREW DRAGON 11",
        "group": "stations",
        "lat": 42.44295259623756,
        "lon": 126.60238164383932,
        "alt_km": 412.63535189151116,
        "timestamp": "2025-12-25T07:41:08.484295+00:00",
        "meta_object_name": "CREW DRAGON 11",
        "meta_object_id": "2025-166A",
        "meta_epoch": "2025-12-24T17:30:08.449344",
        "meta_mean_motion": 15.49788781,
        "meta_eccentricity": 0.00031932,
        "meta_inclination": 51.6317,
        "meta_ra_of_asc_node": 83.1022,
        "meta_arg_of_pericenter": 296.2044,
        "meta_mean_anomaly": 63.8616,
        "meta_ephemeris_type": 0,
        "meta_classification_type": "U",
        "meta_norad_cat_id": 65077,
        "meta_element_set_no": 999,
        "meta_rev_at_epoch": 214,
        "meta_bstar": 0.00024880559,
        "meta_mean_motion_dot": 0.00013665,
        "meta_mean_motion_ddot": 0,
        "tle_line1": "1 65077U 25166A   25358.72926446  .00013665  00000+0  24881-3 0  9994",
        "tle_line2": "2 65077  51.6317  83.1022 0003193 296.2044  63.8616 15.49788781  2144"
      },
      "geometry": {
        "type": "Point",
        "coordinates": [
          126.60238164383932,
          42.44295259623756
        ]
      }
    },
    {
      "type": "Feature",
      "properties": {
        "norad_id": 65304,
        "name": "DRAGON CRS-33",
        "group": "stations",
        "lat": 42.44295305056012,
        "lon": 126.60238260204544,
        "alt_km": 412.6353518493888,
        "timestamp": "2025-12-25T07:41:08.484308+00:00",
        "meta_object_name": "DRAGON CRS-33",
        "meta_object_id": "2025-186A",
        "meta_epoch": "2025-12-24T17:30:08.449344",
        "meta_mean_motion": 15.49788781,
        "meta_eccentricity": 0.00031932,
        "meta_inclination": 51.6317,
        "meta_ra_of_asc_node": 83.1022,
        "meta_arg_of_pericenter": 296.2044,
        "meta_mean_anomaly": 63.8616,
        "meta_ephemeris_type": 0,
        "meta_classification_type": "U",
        "meta_norad_cat_id": 65304,
        "meta_element_set_no": 999,
        "meta_rev_at_epoch": 11,
        "meta_bstar": 0.00024880559,
        "meta_mean_motion_dot": 0.00013665,
        "meta_mean_motion_ddot": 0,
        "tle_line1": "1 65304U 25186A   25358.72926446  .00013665  00000+0  24881-3 0  9999",
        "tle_line2": "2 65304  51.6317  83.1022 0003193 296.2044  63.8616 15.49788781   112"
      },
      "geometry": {
        "type": "Point",
        "coordinates": [
          126.60238260204544,
          42.44295305056012
        ]
      }
    },
    {
      "type": "Feature",
      "properties": {
        "norad_id": 65586,
        "name": "PROGRESS-MS 32",
        "group": "stations",
        "lat": 42.44295343498742,
        "lon": 126.60238341283637,
        "alt_km": 412.6353518137512,
        "timestamp": "2025-12-25T07:41:08.484319+00:00",
        "meta_object_name": "PROGRESS-MS 32",
        "meta_object_id": "2025-204A",
        "meta_epoch": "2025-12-24T17:30:08.449344",
        "meta_mean_motion": 15.49788781,
        "meta_eccentricity": 0.00031932,
        "meta_inclination": 51.6317,
        "meta_ra_of_asc_node": 83.1022,
        "meta_arg_of_pericenter": 296.2044,
        "meta_mean_anomaly": 63.8616,
        "meta_ephemeris_type": 0,
        "meta_classification_type": "U",
        "meta_norad_cat_id": 65586,
        "meta_element_set_no": 999,
        "meta_rev_at_epoch": 27,
        "meta_bstar": 0.00024880559,
        "meta_mean_motion_dot": 0.00013665,
        "meta_mean_motion_ddot": 0,
        "tle_line1": "1 65586U 25204A   25358.72926446  .00013665  00000+0  24881-3 0  9992",
        "tle_line2": "2 65586  51.6317  83.1022 0003193 296.2044  63.8616 15.49788781   271"
      },
      "geometry": {
        "type": "Point",
        "coordinates": [
          126.60238341283637,
          42.44295343498742
        ]
      }
    },
    {
      "type": "Feature",
      "properties": {
        "norad_id": 65616,
        "name": "CYGNUS NG-23",
        "group": "stations",
        "lat": 42.44295378446687,
        "lon": 126.60238414991919,
        "alt_km": 412.6353517813477,
        "timestamp": "2025-12-25T07:41:08.484329+00:00",
        "meta_object_name": "CYGNUS NG-23",
        "meta_object_id": "2025-208A",
        "meta_epoch": "2025-12-24T17:30:08.449344",
        "meta_mean_motion": 15.49788781,
        "meta_eccentricity": 0.00031932,
        "meta_inclination": 51.6317,
        "meta_ra_of_asc_node": 83.1022,
        "meta_arg_of_pericenter": 296.2044,
        "meta_mean_anomaly": 63.8616,
        "meta_ephemeris_type": 0,
        "meta_classification_type": "U",
        "meta_norad_cat_id": 65616,
        "meta_element_set_no": 999,
        "meta_rev_at_epoch": 22,
        "meta_bstar": 0.00024880559,
        "meta_mean_motion_dot": 0.00013665,
        "meta_mean_motion_ddot": 0,
        "tle_line1": "1 65616U 25208A   25358.72926446  .00013665  00000+0  24881-3 0  9990",
        "tle_line2": "2 65616  51.6317  83.1022 0003193 296.2044  63.8616 15.49788781   220"
      },
      "geometry": {
        "type": "Point",
        "coordinates": [
          126.60238414991919,
          42.44295378446687
        ]
      }
    },
    {
      "type": "Feature",
      "properties": {
        "norad_id": 65729,
        "name": "DRAGONFLY",
        "group": "stations",
        "lat": 44.33104196806476,
        "lon": 121.86762115228242,
        "alt_km": 333.23992819036084,
        "timestamp": "2025-12-25T07:41:08.484339+00:00",
        "meta_object_name": "DRAGONFLY",
        "meta_object_id": "1998-067XH",
        "meta_epoch": "2025-12-24T11:38:16.363968",
        "meta_mean_motion": 15.75967783,
        "meta_eccentricity": 0.00080455,
        "meta_inclination": 51.6248,
        "meta_ra_of_asc_node": 75.4439,
        "meta_arg_of_pericenter": 347.1205,
        "meta_mean_anomaly": 12.9588,
        "meta_ephemeris_type": 0,
        "meta_classification_type": "U",
        "meta_norad_cat_id": 65729,
        "meta_element_set_no": 999,
        "meta_rev_at_epoch": 1501,
        "meta_bstar": 0.0013446624,
        "meta_mean_motion_dot": 0.0021844,
        "meta_mean_motion_ddot": 0,
        "tle_line1": "1 65729U 98067XH  25358.48491162  .00218440  00000+0  13447-2 0  9996",
        "tle_line2": "2 65729  51.6248  75.4439 0008045 347.1205  12.9588 15.75967783 15016"
      },
      "geometry": {
        "type": "Point",
        "coordinates": [
          121.86762115228242,
          44.33104196806476
        ]
      }
    }
  ]
}